{
 "generated_at": "2026-06-19T09:28:30Z",
 "sources": [
  {
   "name": "CelesTrak",
   "url": "https://celestrak.org/NORAD/elements/",
   "license": "frei verfügbar; Attribution. Ursprünglich USSPACECOM/Space-Track."
  },
  {
   "name": "GCAT (J. McDowell, planet4589.org)",
   "url": "https://planet4589.org/space/gcat/",
   "license": "CC-BY 4.0"
  }
 ],
 "satellites": [
  {
   "norad": 43013,
   "name": "NOAA 20 (JPSS-1)",
   "intl": "2017-073A",
   "group": "weather",
   "gcat": {
    "class": "C",
    "category": "MET",
    "owner": "GSFC/NOAA",
    "state": "US"
   },
   "omm": {
    "OBJECT_NAME": "NOAA 20 (JPSS-1)",
    "OBJECT_ID": "2017-073A",
    "EPOCH": "2026-06-19T02:46:55.958016",
    "MEAN_MOTION": 14.19512012,
    "ECCENTRICITY": 0.0000333,
    "INCLINATION": 98.777,
    "RA_OF_ASC_NODE": 109.5614,
    "ARG_OF_PERICENTER": 112.1103,
    "MEAN_ANOMALY": 248.0109,
    "EPHEMERIS_TYPE": 0,
    "CLASSIFICATION_TYPE": "U",
    "NORAD_CAT_ID": 43013,
    "ELEMENT_SET_NO": 999,
    "REV_AT_EPOCH": 44474,
    "BSTAR": 0.000035538,
    "MEAN_MOTION_DOT": 3.1e-7,
    "MEAN_MOTION_DDOT": 0
   }
  },
  {
   "norad": 54234,
   "name": "NOAA 21 (JPSS-2)",
   "intl": "2022-150A",
   "group": "weather",
   "gcat": {
    "class": "C",
    "category": "MET",
    "owner": "GSFC/NOAA",
    "state": "US"
   },
   "omm": {
    "OBJECT_NAME": "NOAA 21 (JPSS-2)",
    "OBJECT_ID": "2022-150A",
    "EPOCH": "2026-06-19T03:34:12.571104",
    "MEAN_MOTION": 14.19565745,
    "ECCENTRICITY": 0.0001777,
    "INCLINATION": 98.7058,
    "RA_OF_ASC_NODE": 108.9051,
    "ARG_OF_PERICENTER": 149.5591,
    "MEAN_ANOMALY": 210.5689,
    "EPHEMERIS_TYPE": 0,
    "CLASSIFICATION_TYPE": "U",
    "NORAD_CAT_ID": 54234,
    "ELEMENT_SET_NO": 999,
    "REV_AT_EPOCH": 18682,
    "BSTAR": 0.000041559,
    "MEAN_MOTION_DOT": 4.4e-7,
    "MEAN_MOTION_DDOT": 0
   }
  },
  {
   "norad": 43619,
   "name": "NOVASAR 1",
   "intl": "2018-071B",
   "group": "sar",
   "gcat": {
    "class": "B",
    "category": "IMG",
    "owner": "SSTLA",
    "state": "UK"
   },
   "omm": {
    "OBJECT_NAME": "NOVASAR 1",
    "OBJECT_ID": "2018-071B",
    "EPOCH": "2026-06-19T04:39:51.566112",
    "MEAN_MOTION": 14.96246391,
    "ECCENTRICITY": 0.0002152,
    "INCLINATION": 97.5058,
    "RA_OF_ASC_NODE": 42.4323,
    "ARG_OF_PERICENTER": 81.8306,
    "MEAN_ANOMALY": 278.3159,
    "EPHEMERIS_TYPE": 0,
    "CLASSIFICATION_TYPE": "U",
    "NORAD_CAT_ID": 43619,
    "ELEMENT_SET_NO": 999,
    "REV_AT_EPOCH": 42323,
    "BSTAR": 0.00007502,
    "MEAN_MOTION_DOT": 0.00000792,
    "MEAN_MOTION_DDOT": 0
   }
  },
  {
   "norad": 35931,
   "name": "OCEANSAT-2",
   "intl": "2009-051A",
   "group": "resource",
   "gcat": {
    "class": null,
    "category": null,
    "owner": null,
    "state": null
   },
   "omm": {
    "OBJECT_NAME": "OCEANSAT-2",
    "OBJECT_ID": "2009-051A",
    "EPOCH": "2026-06-19T04:49:39.277056",
    "MEAN_MOTION": 13.99663939,
    "ECCENTRICITY": 0.0015363,
    "INCLINATION": 98.2331,
    "RA_OF_ASC_NODE": 156.8517,
    "ARG_OF_PERICENTER": 229.8959,
    "MEAN_ANOMALY": 130.0862,
    "EPHEMERIS_TYPE": 0,
    "CLASSIFICATION_TYPE": "U",
    "NORAD_CAT_ID": 35931,
    "ELEMENT_SET_NO": 999,
    "REV_AT_EPOCH": 87961,
    "BSTAR": -0.000092038,
    "MEAN_MOTION_DOT": -0.00000172,
    "MEAN_MOTION_DDOT": 0
   }
  },
  {
   "norad": 59065,
   "name": "PARS 1",
   "intl": "2024-039Q",
   "group": "resource",
   "gcat": {
    "class": "C",
    "category": "IMG",
    "owner": "IRSA",
    "state": "IR"
   },
   "omm": {
    "OBJECT_NAME": "PARS 1",
    "OBJECT_ID": "2024-039Q",
    "EPOCH": "2026-06-19T04:36:17.349408",
    "MEAN_MOTION": 15.45758815,
    "ECCENTRICITY": 0.0011544,
    "INCLINATION": 97.4827,
    "RA_OF_ASC_NODE": 151.1747,
    "ARG_OF_PERICENTER": 105.832,
    "MEAN_ANOMALY": 254.4202,
    "EPHEMERIS_TYPE": 0,
    "CLASSIFICATION_TYPE": "U",
    "NORAD_CAT_ID": 59065,
    "ELEMENT_SET_NO": 999,
    "REV_AT_EPOCH": 12895,
    "BSTAR": 0.00019053,
    "MEAN_MOTION_DOT": 0.00009146,
    "MEAN_MOTION_DDOT": 0
   }
  },
  {
   "norad": 41787,
   "name": "PATHFINDER 1",
   "intl": "2016-059E",
   "group": "resource",
   "gcat": {
    "class": null,
    "category": null,
    "owner": null,
    "state": null
   },
   "omm": {
    "OBJECT_NAME": "PATHFINDER 1",
    "OBJECT_ID": "2016-059E",
    "EPOCH": "2026-06-18T23:27:19.146816",
    "MEAN_MOTION": 14.67664833,
    "ECCENTRICITY": 0.0027941,
    "INCLINATION": 97.8166,
    "RA_OF_ASC_NODE": 169.1728,
    "ARG_OF_PERICENTER": 197.7515,
    "MEAN_ANOMALY": 162.2717,
    "EPHEMERIS_TYPE": 0,
    "CLASSIFICATION_TYPE": "U",
    "NORAD_CAT_ID": 41787,
    "ELEMENT_SET_NO": 999,
    "REV_AT_EPOCH": 51997,
    "BSTAR": 0.000082372,
    "MEAN_MOTION_DOT": 0.00000424,
    "MEAN_MOTION_DDOT": 0
   }
  },
  {
   "norad": 43215,
   "name": "PAZ",
   "intl": "2018-020A",
   "group": "sar",
   "gcat": {
    "class": "D",
    "category": "IMG-R",
    "owner": "HISD",
    "state": "E"
   },
   "omm": {
    "OBJECT_NAME": "PAZ",
    "OBJECT_ID": "2018-020A",
    "EPOCH": "2026-06-19T05:09:17.843904",
    "MEAN_MOTION": 15.19142981,
    "ECCENTRICITY": 0.0001733,
    "INCLINATION": 97.4455,
    "RA_OF_ASC_NODE": 177.5717,
    "ARG_OF_PERICENTER": 89.9114,
    "MEAN_ANOMALY": 270.2319,
    "EPHEMERIS_TYPE": 0,
    "CLASSIFICATION_TYPE": "U",
    "NORAD_CAT_ID": 43215,
    "ELEMENT_SET_NO": 999,
    "REV_AT_EPOCH": 46131,
    "BSTAR": 0.000071187,
    "MEAN_MOTION_DOT": 0.00001428,
    "MEAN_MOTION_DDOT": 0
   }
  },
  {
   "norad": 38012,
   "name": "PLEIADES 1A",
   "intl": "2011-076F",
   "group": "resource",
   "gcat": {
    "class": null,
    "category": "IMG",
    "owner": "CNES/DGA",
    "state": "F"
   },
   "omm": {
    "OBJECT_NAME": "PLEIADES 1A",
    "OBJECT_ID": "2011-076F",
    "EPOCH": "2026-06-19T04:30:46.713024",
    "MEAN_MOTION": 14.58571517,
    "ECCENTRICITY": 0.0001693,
    "INCLINATION": 98.1976,
    "RA_OF_ASC_NODE": 245.2644,
    "ARG_OF_PERICENTER": 96.387,
    "MEAN_ANOMALY": 348.3273,
    "EPHEMERIS_TYPE": 0,
    "CLASSIFICATION_TYPE": "U",
    "NORAD_CAT_ID": 38012,
    "ELEMENT_SET_NO": 999,
    "REV_AT_EPOCH": 77228,
    "BSTAR": 0.00001623,
    "MEAN_MOTION_DOT": 3e-7,
    "MEAN_MOTION_DDOT": 0
   }
  },
  {
   "norad": 39019,
   "name": "PLEIADES 1B",
   "intl": "2012-068A",
   "group": "resource",
   "gcat": {
    "class": null,
    "category": "IMG",
    "owner": "CNES",
    "state": "F"
   },
   "omm": {
    "OBJECT_NAME": "PLEIADES 1B",
    "OBJECT_ID": "2012-068A",
    "EPOCH": "2026-06-19T04:56:54.510144",
    "MEAN_MOTION": 14.58561632,
    "ECCENTRICITY": 0.0001665,
    "INCLINATION": 98.1946,
    "RA_OF_ASC_NODE": 245.2302,
    "ARG_OF_PERICENTER": 92.3635,
    "MEAN_ANOMALY": 267.7755,
    "EPHEMERIS_TYPE": 0,
    "CLASSIFICATION_TYPE": "U",
    "NORAD_CAT_ID": 39019,
    "ELEMENT_SET_NO": 999,
    "REV_AT_EPOCH": 72114,
    "BSTAR": 0.000047297,
    "MEAN_MOTION_DOT": 0.00000174,
    "MEAN_MOTION_DDOT": 0
   }
  },
  {
   "norad": 48268,
   "name": "PLEIADES NEO 3",
   "intl": "2021-034A",
   "group": "resource",
   "gcat": {
    "class": null,
    "category": "IMG",
    "owner": "ADSTI",
    "state": "F"
   },
   "omm": {
    "OBJECT_NAME": "PLEIADES NEO 3",
    "OBJECT_ID": "2021-034A",
    "EPOCH": "2026-06-19T05:04:41.117664",
    "MEAN_MOTION": 14.81675039,
    "ECCENTRICITY": 0.0001336,
    "INCLINATION": 97.893,
    "RA_OF_ASC_NODE": 244.9491,
    "ARG_OF_PERICENTER": 90.1965,
    "MEAN_ANOMALY": 269.9401,
    "EPHEMERIS_TYPE": 0,
    "CLASSIFICATION_TYPE": "U",
    "NORAD_CAT_ID": 48268,
    "ELEMENT_SET_NO": 999,
    "REV_AT_EPOCH": 27795,
    "BSTAR": 0.000036694,
    "MEAN_MOTION_DOT": 0.00000237,
    "MEAN_MOTION_DDOT": 0
   }
  }
 ]
}
