OCEANSAT-2              
1 35931U 09051A   26170.20114904 -.00000172  00000+0 -92038-4 0  9990
2 35931  98.2331 156.8517 0015363 229.8959 130.0862 13.99663939879613
PLEIADES 1A             
1 38012U 11076F   26170.18804066  .00000030  00000+0  16230-4 0  9996
2 38012  98.1976 245.2644 0001693  96.3870 348.3273 14.58571517772285
PLEIADES 1B             
1 39019U 12068A   26170.20618646  .00000174  00000+0  47297-4 0  9992
2 39019  98.1946 245.2302 0001665  92.3635 267.7755 14.58561632721140
PATHFINDER 1            
1 41787U 16059E   26169.97730494  .00000424  00000+0  82372-4 0  9990
2 41787  97.8166 169.1728 0027941 197.7515 162.2717 14.67664833519973
NOAA 20 (JPSS-1)        
1 43013U 17073A   26170.11592544  .00000031  00000+0  35538-4 0  9997
2 43013  98.7770 109.5614 0000333 112.1103 248.0109 14.19512012444748
PAZ                     
1 43215U 18020A   26170.21478986  .00001428  00000+0  71187-4 0  9999
2 43215  97.4455 177.5717 0001733  89.9114 270.2319 15.19142981461312
NOVASAR 1               
1 43619U 18071B   26170.19434683  .00000792  00000+0  75020-4 0  9999
2 43619  97.5058  42.4323 0002152  81.8306 278.3159 14.96246391423237
PLEIADES NEO 3          
1 48268U 21034A   26170.21158701  .00000237  00000+0  36694-4 0  9992
2 48268  97.8930 244.9491 0001336  90.1965 269.9401 14.81675039277957
NOAA 21 (JPSS-2)        
1 54234U 22150A   26170.14875661  .00000044  00000+0  41559-4 0  9997
2 54234  98.7058 108.9051 0001777 149.5591 210.5689 14.19565745186820
PARS 1                  
1 59065U 24039Q   26170.19186747  .00009146  00000+0  19053-3 0  9992
2 59065  97.4827 151.1747 0011544 105.8320 254.4202 15.45758815128957
